[{"OBJECT_NAME":"COSMOS 2590","OBJECT_ID":"2025-131D","EPOCH":"2026-04-15T18:12:37.885248","MEAN_MOTION":1.00252337,"ECCENTRICITY":0.3657276,"INCLINATION":0.2177,"RA_OF_ASC_NODE":60.2939,"ARG_OF_PERICENTER":39.3931,"MEAN_ANOMALY":123.2752,"EPHEMERIS_TYPE":0,"CLASSIFICATION_TYPE":"U","NORAD_CAT_ID":64527,"ELEMENT_SET_NO":999,"REV_AT_EPOCH":298,"BSTAR":0,"MEAN_MOTION_DOT":-2.43e-6,"MEAN_MOTION_DDOT":0},{"OBJECT_NAME":"MTG-S1","OBJECT_ID":"2025-143A","EPOCH":"2026-04-27T05:28:14.744352","MEAN_MOTION":1.00272115,"ECCENTRICITY":0.00020815,"INCLINATION":0.5979,"RA_OF_ASC_NODE":337.1693,"ARG_OF_PERICENTER":358.38,"MEAN_ANOMALY":318.336,"EPHEMERIS_TYPE":0,"CLASSIFICATION_TYPE":"U","NORAD_CAT_ID":64723,"ELEMENT_SET_NO":999,"REV_AT_EPOCH":290,"BSTAR":0,"MEAN_MOTION_DOT":-4.2e-7,"MEAN_MOTION_DDOT":0},{"OBJECT_NAME":"DROR 1","OBJECT_ID":"2025-148A","EPOCH":"2026-04-27T05:28:38.743680","MEAN_MOTION":1.00270061,"ECCENTRICITY":0.00035218,"INCLINATION":0.0158,"RA_OF_ASC_NODE":84.9596,"ARG_OF_PERICENTER":289.102,"MEAN_ANOMALY":279.3157,"EPHEMERIS_TYPE":0,"CLASSIFICATION_TYPE":"U","NORAD_CAT_ID":64784,"ELEMENT_SET_NO":999,"REV_AT_EPOCH":278,"BSTAR":0,"MEAN_MOTION_DOT":0,"MEAN_MOTION_DDOT":0},{"OBJECT_NAME":"SHIYAN-29","OBJECT_ID":"2025-196A","EPOCH":"2026-04-27T04:46:21.775296","MEAN_MOTION":1.00271662,"ECCENTRICITY":0.00096474,"INCLINATION":28.7686,"RA_OF_ASC_NODE":19.1794,"ARG_OF_PERICENTER":176.4252,"MEAN_ANOMALY":186.7564,"EPHEMERIS_TYPE":0,"CLASSIFICATION_TYPE":"U","NORAD_CAT_ID":65486,"ELEMENT_SET_NO":999,"REV_AT_EPOCH":237,"BSTAR":0,"MEAN_MOTION_DOT":-2.85e-6,"MEAN_MOTION_DDOT":0},{"OBJECT_NAME":"NUSANTARA LIMA (NUSANTARA 5)","OBJECT_ID":"2025-205A","EPOCH":"2026-04-26T22:25:36.499008","MEAN_MOTION":1.00272864,"ECCENTRICITY":9.67e-5,"INCLINATION":0.0528,"RA_OF_ASC_NODE":74.3714,"ARG_OF_PERICENTER":323.9004,"MEAN_ANOMALY":265.9081,"EPHEMERIS_TYPE":0,"CLASSIFICATION_TYPE":"U","NORAD_CAT_ID":65588,"ELEMENT_SET_NO":999,"REV_AT_EPOCH":220,"BSTAR":0,"MEAN_MOTION_DOT":-3.69e-6,"MEAN_MOTION_DDOT":0},{"OBJECT_NAME":"TJS-20","OBJECT_ID":"2025-238A","EPOCH":"2026-04-27T01:59:21.598368","MEAN_MOTION":1.00268565,"ECCENTRICITY":0.000387,"INCLINATION":5.583,"RA_OF_ASC_NODE":299.7599,"ARG_OF_PERICENTER":122.7182,"MEAN_ANOMALY":244.8751,"EPHEMERIS_TYPE":0,"CLASSIFICATION_TYPE":"U","NORAD_CAT_ID":66142,"ELEMENT_SET_NO":999,"REV_AT_EPOCH":182,"BSTAR":0,"MEAN_MOTION_DOT":4.0e-8,"MEAN_MOTION_DDOT":0},{"OBJECT_NAME":"SPAINSAT NG II","OBJECT_ID":"2025-239A","EPOCH":"2026-04-27T03:01:37.022016","MEAN_MOTION":0.96629131,"ECCENTRICITY":0.76296663,"INCLINATION":14.1921,"RA_OF_ASC_NODE":228.7431,"ARG_OF_PERICENTER":208.2754,"MEAN_ANOMALY":70.7885,"EPHEMERIS_TYPE":0,"CLASSIFICATION_TYPE":"U","NORAD_CAT_ID":66144,"ELEMENT_SET_NO":999,"REV_AT_EPOCH":185,"BSTAR":0,"MEAN_MOTION_DOT":-2.51e-6,"MEAN_MOTION_DDOT":0},{"OBJECT_NAME":"CMS-03 (GSAT-7R)","OBJECT_ID":"2025-249B","EPOCH":"2026-04-27T02:50:38.609088","MEAN_MOTION":1.00272424,"ECCENTRICITY":0.00036807,"INCLINATION":0.0058,"RA_OF_ASC_NODE":169.2864,"ARG_OF_PERICENTER":208.0878,"MEAN_ANOMALY":314.421,"EPHEMERIS_TYPE":0,"CLASSIFICATION_TYPE":"U","NORAD_CAT_ID":66311,"ELEMENT_SET_NO":999,"REV_AT_EPOCH":183,"BSTAR":0,"MEAN_MOTION_DOT":-8.8e-7,"MEAN_MOTION_DDOT":0},{"OBJECT_NAME":"VIASAT-3 F2","OBJECT_ID":"2025-261A","EPOCH":"2026-04-27T04:43:38.701344","MEAN_MOTION":1.00273021,"ECCENTRICITY":0.00012692,"INCLINATION":0.0289,"RA_OF_ASC_NODE":95.3426,"ARG_OF_PERICENTER":36.0807,"MEAN_ANOMALY":75.7093,"EPHEMERIS_TYPE":0,"CLASSIFICATION_TYPE":"U","NORAD_CAT_ID":66454,"ELEMENT_SET_NO":999,"REV_AT_EPOCH":227,"BSTAR":0,"MEAN_MOTION_DOT":-2.44e-6,"MEAN_MOTION_DDOT":0},{"OBJECT_NAME":"SHIJIAN-28 (SJ-28)","OBJECT_ID":"2025-277A","EPOCH":"2026-04-27T02:08:38.539680","MEAN_MOTION":1.00270727,"ECCENTRICITY":2.974e-5,"INCLINATION":4.6691,"RA_OF_ASC_NODE":272.9311,"ARG_OF_PERICENTER":358.1666,"MEAN_ANOMALY":93.0107,"EPHEMERIS_TYPE":0,"CLASSIFICATION_TYPE":"U","NORAD_CAT_ID":66549,"ELEMENT_SET_NO":999,"REV_AT_EPOCH":164,"BSTAR":0,"MEAN_MOTION_DOT":-3.79e-6,"MEAN_MOTION_DDOT":0},{"OBJECT_NAME":"TJS-22","OBJECT_ID":"2025-290A","EPOCH":"2026-04-27T00:15:29.500704","MEAN_MOTION":1.00273026,"ECCENTRICITY":0.00021398,"INCLINATION":1.6546,"RA_OF_ASC_NODE":285.9554,"ARG_OF_PERICENTER":0.6524,"MEAN_ANOMALY":358.7409,"EPHEMERIS_TYPE":0,"CLASSIFICATION_TYPE":"U","NORAD_CAT_ID":66990,"ELEMENT_SET_NO":999,"REV_AT_EPOCH":151,"BSTAR":0,"MEAN_MOTION_DOT":-2.1e-7,"MEAN_MOTION_DDOT":0},{"OBJECT_NAME":"TJS-23","OBJECT_ID":"2025-306A","EPOCH":"2026-04-26T17:49:33.077280","MEAN_MOTION":1.00271881,"ECCENTRICITY":0.0004449,"INCLINATION":5.7057,"RA_OF_ASC_NODE":297.7494,"ARG_OF_PERICENTER":134.5387,"MEAN_ANOMALY":225.2877,"EPHEMERIS_TYPE":0,"CLASSIFICATION_TYPE":"U","NORAD_CAT_ID":67226,"ELEMENT_SET_NO":999,"REV_AT_EPOCH":137,"BSTAR":0,"MEAN_MOTION_DOT":-6.0e-8,"MEAN_MOTION_DDOT":0},{"OBJECT_NAME":"CZ-5 R/B","OBJECT_ID":"2025-306B","EPOCH":"2026-04-26T10:27:56.738304","MEAN_MOTION":1.93663079,"ECCENTRICITY":0.75495969,"INCLINATION":15.8049,"RA_OF_ASC_NODE":255.9436,"ARG_OF_PERICENTER":258.7141,"MEAN_ANOMALY":16.453,"EPHEMERIS_TYPE":0,"CLASSIFICATION_TYPE":"U","NORAD_CAT_ID":67227,"ELEMENT_SET_NO":999,"REV_AT_EPOCH":247,"BSTAR":0.00078866459,"MEAN_MOTION_DOT":1.29e-5,"MEAN_MOTION_DDOT":0},{"OBJECT_NAME":"FENGYUN 4C","OBJECT_ID":"2025-312A","EPOCH":"2026-04-26T22:45:19.383264","MEAN_MOTION":1.00273567,"ECCENTRICITY":5.97e-5,"INCLINATION":0.0319,"RA_OF_ASC_NODE":77.3129,"ARG_OF_PERICENTER":53.7076,"MEAN_ANOMALY":198.2482,"EPHEMERIS_TYPE":0,"CLASSIFICATION_TYPE":"U","NORAD_CAT_ID":67246,"ELEMENT_SET_NO":999,"REV_AT_EPOCH":126,"BSTAR":0,"MEAN_MOTION_DOT":-3.34e-6,"MEAN_MOTION_DDOT":0},{"OBJECT_NAME":"SHIJIAN-29A (SJ-29A)","OBJECT_ID":"2025-315A","EPOCH":"2026-04-27T01:48:57.830112","MEAN_MOTION":1.00274841,"ECCENTRICITY":0.00027814,"INCLINATION":3.2693,"RA_OF_ASC_NODE":96.3555,"ARG_OF_PERICENTER":322.8697,"MEAN_ANOMALY":256.5675,"EPHEMERIS_TYPE":0,"CLASSIFICATION_TYPE":"U","NORAD_CAT_ID":67302,"ELEMENT_SET_NO":999,"REV_AT_EPOCH":110,"BSTAR":0,"MEAN_MOTION_DOT":-7.8e-7,"MEAN_MOTION_DDOT":0},{"OBJECT_NAME":"SHIJIAN-29B (SJ-29B)","OBJECT_ID":"2025-315C","EPOCH":"2026-04-27T04:29:51.662400","MEAN_MOTION":1.00274882,"ECCENTRICITY":0.0006535,"INCLINATION":3.2688,"RA_OF_ASC_NODE":96.3483,"ARG_OF_PERICENTER":339.0151,"MEAN_ANOMALY":280.8505,"EPHEMERIS_TYPE":0,"CLASSIFICATION_TYPE":"U","NORAD_CAT_ID":67403,"ELEMENT_SET_NO":999,"REV_AT_EPOCH":117,"BSTAR":0,"MEAN_MOTION_DOT":-7.9e-7,"MEAN_MOTION_DDOT":0},{"OBJECT_NAME":"LUCH (OLYMP-K 1) DEB","OBJECT_ID":"2014-058D","EPOCH":"2026-04-26T15:00:41.249088","MEAN_MOTION":0.98024314,"ECCENTRICITY":0.1365252,"INCLINATION":1.8023,"RA_OF_ASC_NODE":84.3904,"ARG_OF_PERICENTER":358.5046,"MEAN_ANOMALY":1.2551,"EPHEMERIS_TYPE":0,"CLASSIFICATION_TYPE":"U","NORAD_CAT_ID":67745,"ELEMENT_SET_NO":999,"REV_AT_EPOCH":84,"BSTAR":0,"MEAN_MOTION_DOT":-2.27e-6,"MEAN_MOTION_DDOT":0}]
