COSMOS 2590             
1 64527U 25131D   26105.75877182 -.00000243  00000+0  00000+0 0  9993
2 64527   0.2177  60.2939 3657276  39.3931 123.2752  1.00252337  2980
MTG-S1                  
1 64723U 25143A   26117.22794843 -.00000042  00000+0  00000+0 0  9998
2 64723   0.5979 337.1693 0002081 358.3800 318.3360  1.00272115  2908
DROR 1                  
1 64784U 25148A   26117.22822620  .00000000  00000+0  00000+0 0  9998
2 64784   0.0158  84.9596 0003521 289.1020 279.3157  1.00270061  2787
SHIYAN-29               
1 65486U 25196A   26117.19886314 -.00000285  00000+0  00000+0 0  9993
2 65486  28.7686  19.1794 0009647 176.4252 186.7564  1.00271662  2376
NUSANTARA LIMA (NUSANT*)
1 65588U 25205A   26116.93445022 -.00000369  00000+0  00000+0 0  9998
2 65588   0.0528  74.3714 0000967 323.9004 265.9081  1.00272864  2203
TJS-20                  
1 66142U 25238A   26117.08288887  .00000004  00000+0  00000+0 0  9997
2 66142   5.5830 299.7599 0003870 122.7182 244.8751  1.00268565  1828
SPAINSAT NG II          
1 66144U 25239A   26117.12612294 -.00000251  00000+0  00000+0 0  9993
2 66144  14.1921 228.7431 7629666 208.2754  70.7885  0.96629131  1854
CMS-03 (GSAT-7R)        
1 66311U 25249B   26117.11850242 -.00000088  00000+0  00000+0 0  9994
2 66311   0.0058 169.2864 0003680 208.0878 314.4210  1.00272424  1837
VIASAT-3 F2             
1 66454U 25261A   26117.19697571 -.00000244  00000+0  00000+0 0  9992
2 66454   0.0289  95.3426 0001269  36.0807  75.7093  1.00273021  2275
SHIJIAN-28 (SJ-28)      
1 66549U 25277A   26117.08933495 -.00000379  00000+0  00000+0 0  9999
2 66549   4.6691 272.9311 0000297 358.1666  93.0107  1.00270727  1643
TJS-22                  
1 66990U 25290A   26117.01075811 -.00000021  00000+0  00000+0 0  9990
2 66990   1.6546 285.9554 0002139   0.6524 358.7409  1.00273026  1518
TJS-23                  
1 67226U 25306A   26116.74274395 -.00000006  00000+0  00000+0 0  9991
2 67226   5.7057 297.7494 0004449 134.5387 225.2877  1.00271881  1375
CZ-5 R/B                
1 67227U 25306B   26116.43607336  .00001290  00000+0  78866-3 0  9997
2 67227  15.8049 255.9436 7549596 258.7141  16.4530  1.93663079  2476
FENGYUN 4C              
1 67246U 25312A   26116.94814101 -.00000334  00000+0  00000+0 0  9991
2 67246   0.0319  77.3129 0000597  53.7076 198.2482  1.00273567  1262
SHIJIAN-29A (SJ-29A)    
1 67302U 25315A   26117.07566933 -.00000078  00000+0  00000+0 0  9994
2 67302   3.2693  96.3555 0002781 322.8697 256.5675  1.00274841  1106
SHIJIAN-29B (SJ-29B)    
1 67403U 25315C   26117.18740350 -.00000079  00000+0  00000+0 0  9996
2 67403   3.2688  96.3483 0006535 339.0151 280.8505  1.00274882  1172
LUCH (OLYMP-K 1) DEB    
1 67745U 14058D   26116.62547742 -.00000227  00000+0  00000+0 0  9990
2 67745   1.8023  84.3904 1365252 358.5046   1.2551  0.98024314   845
